IRIDIUM 126             
1 42809U 17039G   25193.79456907  .00000195  00000+0  62657-4 0  9994
2 42809  86.3999 135.5317 0002440  80.6739 279.4732 14.34219316421305
IRIDIUM 124             
1 42810U 17039H   25194.37124445  .00000266  00000+0  73208-4 0  9993
2 42810  86.4458  72.0192 0001826  86.7419 273.3991 14.43275848426243
IRIDIUM 128             
1 42811U 17039J   25193.92484580 -.00000027  00000+0 -16837-4 0  9995
2 42811  86.4010 166.9506 0001809  85.7454 274.3948 14.34217283421358
IRIDIUM 121             
1 42812U 17039K   25193.88336749  .00000024  00000+0  16191-5 0  9993
2 42812  86.4003 135.5200 0002069  86.3361 273.8072 14.34217685421197
IRIDIUM 133             
1 42955U 17061A   25193.88679129 -.00000036  00000+0 -19763-4 0  9990
2 42955  86.4010 167.0755 0002152  84.9075 275.2367 14.34217067406142
IRIDIUM 100             
1 42956U 17061B   25194.43859384  .00000024  00000+0  13386-5 0  9997
2 42956  86.4005 166.7717 0002187  81.7023 278.4421 14.34217029406242
IRIDIUM 122             
1 42957U 17061C   25193.98827210 -.00000015  00000+0 -12550-4 0  9993
2 42957  86.4009 166.9592 0002163  83.7541 276.3901 14.34217287406168
IRIDIUM 129             
1 42958U 17061D   25193.87410653  .00000005  00000+0 -51628-5 0  9999
2 42958  86.4010 167.0699 0002586  89.5684 270.5808 14.34217533406168
